COMMENT,ORIGINATOR,NORAD_CAT_ID,OBJECT_NAME,OBJECT_TYPE,CLASSIFICATION_TYPE,INTLDES,EPOCH,EPOCH_MICROSECONDS,MEAN_MOTION,ECCENTRICITY,INCLINATION,RA_OF_ASC_NODE,ARG_OF_PERICENTER,MEAN_ANOMALY,EPHEMERIS_TYPE,ELEMENT_SET_NO,REV_AT_EPOCH,BSTAR,MEAN_MOTION_DOT,MEAN_MOTION_DDOT,FILE,TLE_LINE0,TLE_LINE1,TLE_LINE2,OBJECT_ID,OBJECT_NUMBER,SEMIMAJOR_AXIS,PERIOD,APOGEE,PERIGEE,DECAYED
"GENERATED VIA SPACETRACK.ORG API","18 SPCS","47950","OBJECT U","TBA","U","21022U","2021-10-05 20:07:51","534624","15.05917056","0.0020306","97.543","178.668","300.073","147.8643","0","999","2966","0.00010551","0.00001478","0","3146301","0 OBJECT U","1 47950U 21022U   21278.83879091  .00001478  00000-0  10551-3 0  9992","2 47950  97.5430 178.6680 0020306 300.0730 147.8643 15.05917056 29660","2021-022U","47950","6926.829","95.623","562.760","534.628","0"
"GENERATED VIA SPACETRACK.ORG API","18 SPCS","47950","OBJECT U","TBA","U","21022U","2021-10-05 20:07:51","534624","15.05917056","0.0020306","97.543","178.668","300.073","147.8643","0","999","2966","0.00010551","0.00001478","0","3146344","0 OBJECT U","1 47950U 21022U   21278.83879091  .00001478  00000-0  10551-3 0  9992","2 47950  97.5430 178.6680 0020306 300.0730 147.8643 15.05917056 29660","2021-022U","47950","6926.829","95.623","562.760","534.628","0"
"GENERATED VIA SPACETRACK.ORG API","18 SPCS","47950","OBJECT U","TBA","U","21022U","2021-10-06 04:24:03","681216","15.05917889","0.0020292","97.5429","179.0051","298.8677","215.9933","0","999","2971","0.0001037","0.00001452","0","3146800","0 OBJECT U","1 47950U 21022U   21279.18337594  .00001452  00000-0  10370-3 0  9999","2 47950  97.5429 179.0051 0020292 298.8677 215.9933 15.05917889 29712","2021-022U","47950","6926.827","95.623","562.747","534.636","0"
"GENERATED VIA SPACETRACK.ORG API","18 SPCS","47950","OBJECT U","TBA","U","21022U","2021-10-06 11:41:17","692512","15.05918016","0.0020245","97.5431","179.3026","297.6712","62.2448","0","999","2976","0.000097792","0.00001366","0","3147653","0 OBJECT U","1 47950U 21022U   21279.48701033  .00001366  00000-0  97792-4 0  9993","2 47950  97.5431 179.3026 0020245 297.6712  62.2448 15.05918016 29767","2021-022U","47950","6926.826","95.623","562.715","534.668","0"
"GENERATED VIA SPACETRACK.ORG API","18 SPCS","47950","OBJECT U","TBA","U","21022U","2021-10-06 11:41:17","692512","15.05918016","0.0020245","97.5431","179.3026","297.6712","62.2448","0","999","2976","0.000097792","0.00001366","0","3147912","0 OBJECT U","1 47950U 21022U   21279.48701033  .00001366  00000-0  97792-4 0  9993","2 47950  97.5431 179.3026 0020245 297.6712  62.2448 15.05918016 29767","2021-022U","47950","6926.826","95.623","562.715","534.668","0"
"GENERATED VIA SPACETRACK.ORG API","18 SPCS","47950","OBJECT U","TBA","U","21022U","2021-10-06 19:39:42","526944","15.05918981","0.0020281","97.5429","179.6279","296.5394","63.3753","0","999","2981","0.000097237","0.00001358","0","3148318","0 OBJECT U","1 47950U 21022U   21279.81924221  .00001358  00000-0  97237-4 0  9991","2 47950  97.5429 179.6279 0020281 296.5394  63.3753 15.05918981 29819","2021-022U","47950","6926.823","95.623","562.736","534.640","0"
"GENERATED VIA SPACETRACK.ORG API","18 SPCS","47950","OBJECT U","TBA","U","21022U","2021-10-06 19:39:42","526944","15.05918981","0.0020281","97.5429","179.6279","296.5394","63.3753","0","999","2981","0.000097237","0.00001358","0","3148521","0 OBJECT U","1 47950U 21022U   21279.81924221  .00001358  00000-0  97237-4 0  9991","2 47950  97.5429 179.6279 0020281 296.5394  63.3753 15.05918981 29819","2021-022U","47950","6926.823","95.623","562.736","534.640","0"
"GENERATED VIA SPACETRACK.ORG API","18 SPCS","47950","OBJECT U","TBA","U","21022U","2021-10-07 03:38:07","341504","15.05919887","0.0020338","97.5429","179.9528","295.4761","64.4361","0","999","2986","0.000096687","0.0000135","0","3148952","0 OBJECT U","1 47950U 21022U   21280.15147386  .00001350  00000-0  96687-4 0  9999","2 47950  97.5429 179.9528 0020338 295.4761  64.4361 15.05919887 29866","2021-022U","47950","6926.820","95.623","562.773","534.598","0"
"GENERATED VIA SPACETRACK.ORG API","18 SPCS","47950","OBJECT U","TBA","U","21022U","2021-10-07 11:36:32","179392","15.05920438","0.0020314","97.543","180.2779","294.1998","65.7109","0","999","2991","0.000093542","0.00001304","0","3149232","0 OBJECT U","1 47950U 21022U   21280.48370578  .00001304  00000-0  93542-4 0  9992","2 47950  97.5430 180.2779 0020314 294.1998  65.7109 15.05920438 29917","2021-022U","47950","6926.819","95.623","562.755","534.613","0"
"GENERATED VIA SPACETRACK.ORG API","18 SPCS","47950","OBJECT U","TBA","U","21022U","2021-10-07 19:34:56","923104","15.05921578","0.0020349","97.5428","180.6028","292.9913","66.9169","0","999","2996","0.000094657","0.0000132","0","3150022","0 OBJECT U","1 47950U 21022U   21280.81593661  .00001320  00000-0  94657-4 0  9995","2 47950  97.5428 180.6028 0020349 292.9913  66.9169 15.05921578 29966","2021-022U","47950","6926.815","95.623","562.776","534.585","0"
"GENERATED VIA SPACETRACK.ORG API","18 SPCS","47950","OBJECT U","TBA","U","21022U","2021-10-07 19:34:56","923104","15.05921578","0.0020349","97.5428","180.6028","292.9913","66.9169","0","999","2996","0.000094657","0.0000132","0","3150302","0 OBJECT U","1 47950U 21022U   21280.81593661  .00001320  00000-0  94657-4 0  9995","2 47950  97.5428 180.6028 0020349 292.9913  66.9169 15.05921578 29966","2021-022U","47950","6926.815","95.623","562.776","534.585","0"
"GENERATED VIA SPACETRACK.ORG API","18 SPCS","47950","OBJECT U","TBA","U","21022U","2021-10-08 03:33:21","672864","15.05922884","0.0020298","97.5428","180.9275","291.6128","68.2963","0","999","3001","0.000097297","0.00001359","0","3150799","0 OBJECT U","1 47950U 21022U   21281.14816751  .00001359  00000-0  97297-4 0  9995","2 47950  97.5428 180.9275 0020298 291.6128  68.2963 15.05922884 30016","2021-022U","47950","6926.811","95.622","562.736","534.616","0"
"GENERATED VIA SPACETRACK.ORG API","18 SPCS","47950","OBJECT U","TBA","U","21022U","2021-10-08 11:31:46","375104","15.05924139","0.0020251","97.5428","181.2525","290.3191","69.5889","0","999","3006","0.000099289","0.00001388","0","3151236","0 OBJECT U","1 47950U 21022U   21281.48039786  .00001388  00000-0  99289-4 0  9992","2 47950  97.5428 181.2525 0020251 290.3191  69.5889 15.05924139 30064","2021-022U","47950","6926.807","95.622","562.700","534.645","0"
"GENERATED VIA SPACETRACK.ORG API","18 SPCS","47950","OBJECT U","TBA","U","21022U","2021-10-08 11:31:46","375104","15.05924139","0.0020251","97.5428","181.2525","290.3191","69.5889","0","999","3006","0.000099289","0.00001388","0","3151292","0 OBJECT U","1 47950U 21022U   21281.48039786  .00001388  00000-0  99289-4 0  9992","2 47950  97.5428 181.2525 0020251 290.3191  69.5889 15.05924139 30064","2021-022U","47950","6926.807","95.622","562.700","534.645","0"
"GENERATED VIA SPACETRACK.ORG API","18 SPCS","47950","OBJECT U","TBA","U","21022U","2021-10-08 19:30:11","11680","15.05925532","0.0020298","97.5427","181.5774","289.2198","70.6838","0","999","3011","0.0001024","0.00001433","0","3151827","0 OBJECT U","1 47950U 21022U   21281.81262745  .00001433  00000-0  10240-3 0  9992","2 47950  97.5427 181.5774 0020298 289.2198  70.6838 15.05925532 30118","2021-022U","47950","6926.803","95.622","562.728","534.608","0"
"GENERATED VIA SPACETRACK.ORG API","18 SPCS","47950","OBJECT U","TBA","U","21022U","2021-10-08 19:30:11","11680","15.05925532","0.0020298","97.5427","181.5774","289.2198","70.6838","0","999","3011","0.0001024","0.00001433","0","3152020","0 OBJECT U","1 47950U 21022U   21281.81262745  .00001433  00000-0  10240-3 0  9992","2 47950  97.5427 181.5774 0020298 289.2198  70.6838 15.05925532 30118","2021-022U","47950","6926.803","95.622","562.728","534.608","0"
"GENERATED VIA SPACETRACK.ORG API","18 SPCS","47950","OBJECT U","TBA","U","21022U","2021-10-09 05:04:16","612032","15.0592737","0.0020249","97.5424","181.9672","287.6456","72.2595","0","999","3017","0.00010695","0.000015","0","3152645","0 OBJECT U","1 47950U 21022U   21282.21130338  .00001500  00000-0  10695-3 0  9998","2 47950  97.5424 181.9672 0020249 287.6456  72.2595 15.05927370 30177","2021-022U","47950","6926.797","95.622","562.689","534.636","0"
"GENERATED VIA SPACETRACK.ORG API","18 SPCS","47950","OBJECT U","TBA","U","21022U","2021-10-09 05:04:16","612032","15.0592737","0.0020249","97.5424","181.9672","287.6456","72.2595","0","999","3017","0.00010695","0.000015","0","3153337","0 OBJECT U","1 47950U 21022U   21282.21130338  .00001500  00000-0  10695-3 0  9998","2 47950  97.5424 181.9672 0020249 287.6456  72.2595 15.05927370 30177","2021-022U","47950","6926.797","95.622","562.689","534.636","0"
"GENERATED VIA SPACETRACK.ORG API","18 SPCS","47950","OBJECT U","TBA","U","21022U","2021-10-09 13:02:41","210592","15.05929242","0.0020255","97.5424","182.2925","286.4884","73.4169","0","999","3022","0.00011324","0.00001592","0","3153296","0 OBJECT U","1 47950U 21022U   21282.54353253  .00001592  00000-0  11324-3 0  9998","2 47950  97.5424 182.2925 0020255 286.4884  73.4169 15.05929242 30227","2021-022U","47950","6926.792","95.622","562.687","534.627","0"
"GENERATED VIA SPACETRACK.ORG API","18 SPCS","47950","OBJECT U","TBA","U","21022U","2021-10-09 19:25:24","762432","15.05930814","0.0020316","97.5423","182.5526","285.4759","74.4235","0","999","3026","0.00011845","0.00001668","0","3153699","0 OBJECT U","1 47950U 21022U   21282.80931438  .00001668  00000-0  11845-3 0  9996","2 47950  97.5423 182.5526 0020316 285.4759  74.4235 15.05930814 30260","2021-022U","47950","6926.787","95.622","562.724","534.579","0"
